COSMOS 2576             
1 59773U 24092A   26068.82603826  .00015211  00000+0  56283-3 0  9991
2 59773  97.4253 186.0053 0005946 159.7731 200.3745 15.27760963101271
STARLINK-34170          
1 63955U 25099D   26068.37103003  .00027631  00000+0  10100-2 0  9994
2 63955  43.0004 178.3629 0001271 244.0869 115.9851 15.27573721 47271
